Total gap duration: 4 days, 13:03:57.637847
STARLINK-30144
1 56835U 23079N   24100.92366876  .00000291  00000+0  36601-4 0  9993
2 56835  43.0043 304.1176 0001414 262.4038  97.6643 15.02533375 47774
Total gap duration: 4 days, 12:30:36.178053
STARLINK-5375
1 56140U 23046BA  24101.34387567  .00000772  00000+0  72247-4 0  9993
2 56140  43.0066 340.4973 0001124 265.0074  95.0640 15.02539472 57700
Total gap duration: 4 days, 12:34:11.480002
STARLINK-3283
1 50179U 21125Z   24101.52132569  .00000355  00000+0  40421-4 0  9991
2 50179  53.2160 143.3188 0001543  90.9253 269.1916 15.08847407130710
Total gap duration: 4 days, 12:29:10.755383
STARLINK-6100
1 57125U 23090AA  24100.43733512  .00000526  00000+0  54031-4 0  9998
2 57125  43.0041 101.5171 0001106 270.0369  90.0347 15.02538320 44230
Total gap duration: 4 days, 12:24:33.673160
STARLINK-4495
1 53552U 22101AB  24100.89986535 -.00003386  00000+0 -19483-3 0  9995
2 53552  53.2180 321.1082 0001510  88.3062 271.8103 15.08829081 90814
Total gap duration: 4 days, 12:29:13.559189
STARLINK-5176
1 54053U 22136C   24101.40405353  .00000526  00000+0  51117-4 0  9994
2 54053  53.2113 239.0521 0001512  91.5735 268.5431 15.08839762 81901
Total gap duration: 4 days, 12:38:11.880229
STARLINK-30994
1 58483U 23186L   24100.57421868  .00027524  00000+0  10579-2 0  9999
2 58483  42.9995 241.5101 0001454 267.6838  92.3846 15.25916787 20876
Total gap duration: 4 days, 12:25:29.635036
STARLINK-5622
1 55358U 23013AD  24101.48015877  .00000050  00000+0  18789-4 0  9994
2 55358  43.0043 133.9421 0001262 272.4222  87.6476 15.02531883 67116
Total gap duration: 4 days, 12:34:13.157405
STARLINK-1784
1 46687U 20073T   24101.22544439  .00001837  00000+0  14214-3 0  9997
2 46687  53.0535 117.1412 0001291  94.0618 266.0519 15.06403873192617
Total gap duration: 4 days, 12:48:55.960820
STARLINK-6364
1 57378U 23099BC  24101.05438598 -.00003325  00000+0 -23106-3 0  9992
2 57378  43.0060  46.1171 0001084 274.5621  85.5098 15.02551420 42214
Total gap duration: 4 days, 12:38:54.087244
